OBJECT_NAME,OBJECT_ID,EPOCH,MEAN_MOTION,ECCENTRICITY,INCLINATION,RA_OF_ASC_NODE,ARG_OF_PERICENTER,MEAN_ANOMALY,EPHEMERIS_TYPE,CLASSIFICATION_TYPE,NORAD_CAT_ID,ELEMENT_SET_NO,REV_AT_EPOCH,BSTAR,MEAN_MOTION_DOT,MEAN_MOTION_DDOT
IRS-P6 (RESOURCESAT-1),2003-046A,2026-07-18T07:12:05.829408,14.36171847,.00628073,98.1886,234.2891,248.5120,167.5556,0,U,28051,999,18499,.68368341E-4,.162E-5,0
SAUDISAT 2,2004-025F,2026-07-18T06:46:42.886848,14.56699177,.00242552,98.5522,200.0700,198.5050,161.5267,0,U,28371,999,17027,.30715577E-4,.88E-6,0
COSMOS 2407,2004-028A,2026-07-18T02:51:48.306240,13.76336707,.00395614,82.9585,51.9204,163.9105,313.6350,0,U,28380,999,10413,.1605056E-4,.31E-6,0
COSMOS 2414,2005-002A,2026-07-18T00:44:59.247456,13.87928568,.00388674,82.9490,20.3090,240.4400,119.2887,0,U,28521,999,8809,.19681816E-4,.39E-6,0
INMARSAT 4-F1,2005-009A,2026-07-17T20:57:48.348000,1.00271594,.00026413,5.2093,42.7939,72.5469,312.8867,0,U,28628,999,7798,0,.22E-6,0
HAMSAT (VO-52),2005-017B,2026-07-18T01:43:40.523520,15.09974056,.00174234,97.9900,223.4562,293.5857,66.3541,0,U,28650,999,15142,.15032275E-3,.2377E-4,0
NOAA 18,2005-018A,2026-07-18T06:18:21.519648,14.13734350,.00152115,98.8107,278.4880,65.0578,295.2173,0,U,28654,999,9070,.29962756E-4,.13E-6,0
SJ-7,2005-024A,2026-07-18T01:27:58.571712,15.21958416,.00136194,97.7273,230.0029,285.6419,74.3313,0,U,28737,999,15272,.16833656E-3,.3772E-4,0
CUBESAT XI-V,2005-043F,2026-07-16T23:00:13.929984,14.72704810,.0015312,98.3017,354.2118,110.0551,250.2305,0,U,28895,999,10613,.10709E-3,.631E-5,0
CLOUDSAT,2006-016A,2026-07-18T05:59:16.380096,14.86448395,.000431,98.3914,238.2603,220.0150,140.0747,0,U,29107,999,7912,.52351651E-4,.402E-5,0
CALIPSO,2006-016B,2026-07-18T05:06:34.636032,14.69403866,.00014569,98.4471,215.9349,110.4518,249.6843,0,U,29108,999,7761,.92218369E-4,.493E-5,0
HINODE (SOLAR-B),2006-041A,2026-07-18T01:10:09.551424,14.68660184,.00172543,98.0548,214.7464,185.2759,174.8267,0,U,29479,999,5940,.5389075E-4,.265E-5,0
METOP-A,2006-044A,2026-07-18T05:39:11.824992,14.76050613,.01729372,98.3352,306.9158,330.7511,57.7628,0,U,29499,999,3003,.58695543E-4,.446E-5,0
SHIJIAN-6 02B (SJ-6 02B),2006-046B,2026-07-18T06:28:30.345024,15.01440336,.0013018,97.7138,228.1358,325.3898,34.6477,0,U,29506,999,7540,.27240445E-4,.291E-5,0
DMSP 5D-3 F17 (USA 191),2006-050A,2026-07-18T06:46:58.179648,14.14996190,.00095479,98.7388,205.2177,333.7261,26.3428,0,U,29522,999,1682,.3981939E-5,-.36E-6,0
LAPAN-TUBSAT,2007-001A,2026-07-18T07:07:29.197344,14.85979663,.00136322,98.1351,199.2246,84.7662,275.5108,0,U,29709,999,5577,.7785259E-4,.623E-5,0
HAIYANG-1B,2007-010A,2026-07-17T21:49:50.677248,14.31033731,.00147243,98.3516,179.5662,108.3115,251.9672,0,U,31113,999,503,.28130751E-4,.33E-6,0
BEIDOU-2 M1,2007-011A,2026-07-15T13:42:30.254400,1.77349362,.0002048,50.9235,218.3344,327.9250,32.1102,0,U,31115,999,7665,0,.45E-6,0
CAPE-1,2007-012P,2026-07-17T21:45:31.261248,14.64957844,.00828519,98.4481,174.2285,336.2854,23.4538,0,U,31130,999,2285,.12723897E-3,.659E-5,0
CBERS 2B,2007-042A,2026-07-18T06:57:47.644992,14.41489569,.0029797,98.3930,143.3994,240.1389,286.5866,0,U,32062,999,98916,.37252536E-4,.78E-6,0
COSMO-SKYMED 2,2007-059A,2026-07-18T06:48:06.381216,14.82151850,.000145,97.8896,22.4317,93.9204,266.2175,0,U,32376,999,661,.25905634E-4,.154E-5,0
CARTOSAT-2A,2008-021A,2026-07-18T07:08:15.238176,14.79279188,.00121942,97.7611,246.9419,17.7826,342.3811,0,U,32783,999,98340,.73334182E-4,.496E-5,0
CUTE-1.7+APD II (CO-65),2008-021C,2026-07-18T04:53:08.831616,15.09715838,.00068393,97.8299,181.2770,287.0657,72.9822,0,U,32785,999,98987,.1304799E-3,.2036E-4,0
SEEDS II (CO-66),2008-021J,2026-07-18T06:22:13.792224,15.33729458,.000342,97.7531,198.6727,150.0473,210.0965,0,U,32791,999,99205,.30653814E-3,.9917E-4,0
YUBILEINY (RS30),2008-025A,2026-07-18T07:46:29.947008,12.43180656,.0018692,82.5068,336.0703,241.7403,118.1791,0,U,32953,999,82356,-.48976833E-4,.3E-7,0
FENGYUN 3A,2008-026A,2026-07-18T06:30:54.573408,14.19576835,.00095525,98.6886,139.5242,43.9751,316.2184,0,U,32958,999,93981,.27831299E-4,.15E-6,0
HUANJING 1A (HJ-1A),2008-041A,2026-07-18T05:59:30.263712,14.84053837,.00201307,97.6700,183.8909,40.2768,319.9933,0,U,33320,999,96301,.1258002E-3,.1E-4,0
HUANJING 1B (HJ-1B),2008-041B,2026-07-18T07:12:39.993696,14.83367531,.00379697,97.6536,187.0169,81.4336,279.1178,0,U,33321,999,96302,.29305688E-4,.191E-5,0
SHIJIAN-6 03A (SJ-6 03A),2008-053A,2026-07-18T05:48:33.265152,15.17434268,.00096056,97.8389,233.6462,263.6518,96.3620,0,U,33408,999,96767,.17809672E-3,.3493E-4,0
SHIJIAN-6 03B (SJ-6 03B),2008-053B,2026-07-18T07:05:29.720832,15.04379181,.0017785,97.8560,219.7034,299.2706,60.6741,0,U,33409,999,96742,-.9630385E-5,-.2E-5,0
